start=new Date('2021-12-26T00:00:00.000Z').valueOf();
sats=[{"RCS_SIZE":"LARGE","INCLINATION":"53.0564","OBJECT_ID":"2020-073AR","BSTAR":"-0.00015235000000","GP_ID":"192435117","PERIAPSIS":"546.034","FILE":"3250932","DECAY_DATE":null,"EPOCH":"2021-12-25T13:25:08.999616","RA_OF_ASC_NODE":"308.0821","SEMIMAJOR_AXIS":"6925.404","MEAN_MOTION":"15.06381877","ARG_OF_PERICENTER":"54.4539","ECCENTRICITY":"0.00017840","REV_AT_EPOCH":"6601","TLE_LINE1":"1 46709U 20073AR  21359.55913194 -.00002549  00000-0 -15235-3 0  9996","PERIOD":"95.593","MEAN_MOTION_DDOT":"0.0000000000000","SITE":"AFETR","TLE_LINE2":"2 46709  53.0564 308.0821 0001784  54.4539 305.6616 15.06381877 66019","OBJECT_TYPE":"PAYLOAD","COUNTRY_CODE":"US","OBJECT_NAME":"STARLINK-1810","MEAN_MOTION_DOT":"-0.00002549","NORAD_CAT_ID":"46709","MEAN_ANOMALY":"305.6616","CENTER_NAME":"EARTH","CLASSIFICATION_TYPE":"U","TIME_SYSTEM":"UTC","LAUNCH_DATE":"2020-10-18","REF_FRAME":"TEME","MEAN_ELEMENT_THEORY":"SGP4","ELEMENT_SET_NO":"999","APOAPSIS":"548.505","EPHEMERIS_TYPE":"0"},{"REV_AT_EPOCH":"6555","TLE_LINE1":"1 46710U 20073AS  21359.65590603  .00001058  00000-0  89922-4 0  9992","SEMIMAJOR_AXIS":"6925.364","RA_OF_ASC_NODE":"307.6607","MEAN_MOTION":"15.06394864","ARG_OF_PERICENTER":"54.0960","ECCENTRICITY":"0.00014610","GP_ID":"192458158","PERIAPSIS":"546.218","FILE":"3250974","DECAY_DATE":null,"EPOCH":"2021-12-25T15:44:30.280992","RCS_SIZE":"LARGE","INCLINATION":"53.0533","OBJECT_ID":"2020-073AS","BSTAR":"0.00008992200000","REF_FRAME":"TEME","MEAN_ELEMENT_THEORY":"SGP4","ELEMENT_SET_NO":"999","EPHEMERIS_TYPE":"0","APOAPSIS":"548.241","TIME_SYSTEM":"UTC","LAUNCH_DATE":"2020-10-18","TLE_LINE2":"2 46710  53.0533 307.6607 0001461  54.0960 306.0164 15.06394864 65551","OBJECT_TYPE":"PAYLOAD","OBJECT_NAME":"STARLINK-1811","COUNTRY_CODE":"US","MEAN_MOTION_DOT":"0.00001058","MEAN_ANOMALY":"306.0164","NORAD_CAT_ID":"46710","CENTER_NAME":"EARTH","CLASSIFICATION_TYPE":"U","PERIOD":"95.592","MEAN_MOTION_DDOT":"0.0000000000000","SITE":"AFETR"},{"SEMIMAJOR_AXIS":"6925.366","RA_OF_ASC_NODE":"291.5870","MEAN_MOTION":"15.06394221","ARG_OF_PERICENTER":"57.6305","ECCENTRICITY":"0.00016470","REV_AT_EPOCH":"6580","TLE_LINE1":"1 46711U 20073AT  21359.89503258  .00006591  00000-0  46101-3 0  9997","INCLINATION":"53.0543","RCS_SIZE":"LARGE","OBJECT_ID":"2020-073AT","BSTAR":"0.00046101000000","GP_ID":"192456908","PERIAPSIS":"546.091","DECAY_DATE":null,"EPOCH":"2021-12-25T21:28:50.814912","FILE":"3250974","TIME_SYSTEM":"UTC","LAUNCH_DATE":"2020-10-18","REF_FRAME":"TEME","MEAN_ELEMENT_THEORY":"SGP4","ELEMENT_SET_NO":"999","APOAPSIS":"548.372","EPHEMERIS_TYPE":"0","MEAN_MOTION_DDOT":"0.0000000000000","PERIOD":"95.593","SITE":"AFETR","OBJECT_TYPE":"PAYLOAD","TLE_LINE2":"2 46711  53.0543 291.5870 0001647  57.6305 302.4844 15.06394221 65804","COUNTRY_CODE":"US","OBJECT_NAME":"STARLINK-1813","MEAN_MOTION_DOT":"0.00006591","CLASSIFICATION_TYPE":"U","NORAD_CAT_ID":"46711","CENTER_NAME":"EARTH","MEAN_ANOMALY":"302.4844"},{"TLE_LINE2":"2 46712  53.0531 293.2344 0001738  57.2824 302.8332 15.06385648 65742","OBJECT_TYPE":"PAYLOAD","COUNTRY_CODE":"US","OBJECT_NAME":"STARLINK-1814","MEAN_MOTION_DOT":"-0.00001319","MEAN_ANOMALY":"302.8332","NORAD_CAT_ID":"46712","CENTER_NAME":"EARTH","CLASSIFICATION_TYPE":"U","PERIOD":"95.593","MEAN_MOTION_DDOT":"0.0000000000000","SITE":"AFETR","REF_FRAME":"TEME","MEAN_ELEMENT_THEORY":"SGP4","ELEMENT_SET_NO":"999","EPHEMERIS_TYPE":"0","APOAPSIS":"548.461","TIME_SYSTEM":"UTC","LAUNCH_DATE":"2020-10-18","GP_ID":"192428447","PERIAPSIS":"546.054","FILE":"3250775","DECAY_DATE":null,"EPOCH":"2021-12-25T12:42:01.098432","RCS_SIZE":"LARGE","INCLINATION":"53.0531","OBJECT_ID":"2020-073AU","BSTAR":"-0.00006971700000","REV_AT_EPOCH":"6574","TLE_LINE1":"1 46712U 20073AU  21359.52917938 -.00001319  00000-0 -69717-4 0  9996","MEAN_MOTION":"15.06385648","SEMIMAJOR_AXIS":"6925.393","RA_OF_ASC_NODE":"293.2344","ARG_OF_PERICENTER":"57.2824","ECCENTRICITY":"0.00017380"},{"INCLINATION":"53.0534","RCS_SIZE":"LARGE","BSTAR":"0.00005072100000","OBJECT_ID":"2020-073AV","PERIAPSIS":"545.878","GP_ID":"192457910","EPOCH":"2021-12-25T20:57:00.397728","DECAY_DATE":null,"FILE":"3250974","RA_OF_ASC_NODE":"291.6899","SEMIMAJOR_AXIS":"6925.383","MEAN_MOTION":"15.06388902","ECCENTRICITY":"0.00019780","ARG_OF_PERICENTER":"57.7261","TLE_LINE1":"1 46713U 20073AV  21359.87292127  .00000474  00000-0  50721-4 0  9995","REV_AT_EPOCH":"6579","SITE":"AFETR","MEAN_MOTION_DDOT":"0.0000000000000","PERIOD":"95.593","COUNTRY_CODE":"US","OBJECT_NAME":"STARLINK-1815","OBJECT_TYPE":"PAYLOAD","TLE_LINE2":"2 46713  53.0534 291.6899 0001978  57.7261 302.3920 15.06388902 65798","CLASSIFICATION_TYPE":"U","NORAD_CAT_ID":"46713","MEAN_ANOMALY":"302.3920","CENTER_NAME":"EARTH","MEAN_MOTION_DOT":"0.00000474","LAUNCH_DATE":"2020-10-18","TIME_SYSTEM":"UTC","MEAN_ELEMENT_THEORY":"SGP4","REF_FRAME":"TEME","APOAPSIS":"548.617","EPHEMERIS_TYPE":"0","ELEMENT_SET_NO":"999"},{"INCLINATION":"53.0552","RCS_SIZE":"LARGE","BSTAR":"0.00007901000000","OBJECT_ID":"2020-073AW","PERIAPSIS":"545.886","GP_ID":"192434778","DECAY_DATE":null,"EPOCH":"2021-12-25T12:43:22.610784","FILE":"3250930","MEAN_MOTION":"15.06396343","SEMIMAJOR_AXIS":"6925.360","RA_OF_ASC_NODE":"293.2227","ECCENTRICITY":"0.00019330","ARG_OF_PERICENTER":"53.6314","TLE_LINE1":"1 46714U 20073AW  21359.53012281  .00000895  00000-0  79010-4 0  9999","REV_AT_EPOCH":"6622","SITE":"AFETR","MEAN_MOTION_DDOT":"0.0000000000000","PERIOD":"95.592","COUNTRY_CODE":"US","OBJECT_NAME":"STARLINK-1816","OBJECT_TYPE":"PAYLOAD","TLE_LINE2":"2 46714  53.0552 293.2227 0001933  53.6314 306.4853 15.06396343 66224","CLASSIFICATION_TYPE":"U","MEAN_ANOMALY":"306.4853","NORAD_CAT_ID":"46714","CENTER_NAME":"EARTH","MEAN_MOTION_DOT":"0.00000895","LAUNCH_DATE":"2020-10-18","TIME_SYSTEM":"UTC","MEAN_ELEMENT_THEORY":"SGP4","REF_FRAME":"TEME","APOAPSIS":"548.563","EPHEMERIS_TYPE":"0","ELEMENT_SET_NO":"999"},{"SITE":"AFETR","PERIOD":"95.593","MEAN_MOTION_DDOT":"0.0000000000000","NORAD_CAT_ID":"46715","CENTER_NAME":"EARTH","MEAN_ANOMALY":"312.3568","CLASSIFICATION_TYPE":"U","MEAN_MOTION_DOT":"-0.00002362","OBJECT_NAME":"STARLINK-1817","COUNTRY_CODE":"US","TLE_LINE2":"2 46715  53.0547 291.7503 0001910  47.7583 312.3568 15.06386206 65793","OBJECT_TYPE":"PAYLOAD","LAUNCH_DATE":"2020-10-18","TIME_SYSTEM":"UTC","APOAPSIS":"548.579","EPHEMERIS_TYPE":"0","ELEMENT_SET_NO":"999","MEAN_ELEMENT_THEORY":"SGP4","REF_FRAME":"TEME","BSTAR":"-0.00013979000000","OBJECT_ID":"2020-073AX","RCS_SIZE":"LARGE","INCLINATION":"53.0547","FILE":"3250974","EPOCH":"2021-12-25T20:35:46.485888","DECAY_DATE":null,"PERIAPSIS":"545.933","GP_ID":"192456409","ECCENTRICITY":"0.00019100","ARG_OF_PERICENTER":"47.7583","SEMIMAJOR_AXIS":"6925.391","MEAN_MOTION":"15.06386206","RA_OF_ASC_NODE":"291.7503","TLE_LINE1":"1 46715U 20073AX  21359.85817692 -.00002362  00000-0 -13979-3 0  9998","REV_AT_EPOCH":"6579"},{"INCLINATION":"53.0549","RCS_SIZE":"LARGE","OBJECT_ID":"2020-073AY","BSTAR":"0.00020037000000","GP_ID":"192457159","PERIAPSIS":"545.804","EPOCH":"2021-12-25T20:57:39.511008","DECAY_DATE":null,"FILE":"3250974","SEMIMAJOR_AXIS":"6925.351","MEAN_MOTION":"15.06399098","RA_OF_ASC_NODE":"306.6896","ARG_OF_PERICENTER":"55.2023","ECCENTRICITY":"0.00020390","REV_AT_EPOCH":"6558","TLE_LINE1":"1 46716U 20073AY  21359.87337397  .00002704  00000-0  20037-3 0  9991","MEAN_MOTION_DDOT":"0.0000000000000","PERIOD":"95.592","SITE":"AFETR","OBJECT_TYPE":"PAYLOAD","TLE_LINE2":"2 46716  53.0549 306.6896 0002039  55.2023 304.9157 15.06399098 65584","OBJECT_NAME":"STARLINK-1818","COUNTRY_CODE":"US","MEAN_MOTION_DOT":"0.00002704","CLASSIFICATION_TYPE":"U","MEAN_ANOMALY":"304.9157","NORAD_CAT_ID":"46716","CENTER_NAME":"EARTH","TIME_SYSTEM":"UTC","LAUNCH_DATE":"2020-10-18","REF_FRAME":"TEME","MEAN_ELEMENT_THEORY":"SGP4","ELEMENT_SET_NO":"999","EPHEMERIS_TYPE":"0","APOAPSIS":"548.628"},{"ELEMENT_SET_NO":"999","EPHEMERIS_TYPE":"0","APOAPSIS":"548.451","REF_FRAME":"TEME","MEAN_ELEMENT_THEORY":"SGP4","TIME_SYSTEM":"UTC","LAUNCH_DATE":"2020-10-18","MEAN_MOTION_DOT":"0.00000065","NORAD_CAT_ID":"46717","MEAN_ANOMALY":"300.8677","CENTER_NAME":"EARTH","CLASSIFICATION_TYPE":"U","TLE_LINE2":"2 46717  53.0544 291.6567 0001781  59.2487 300.8677 15.06398787 65798","OBJECT_TYPE":"PAYLOAD","COUNTRY_CODE":"US","OBJECT_NAME":"STARLINK-1820","PERIOD":"95.592","MEAN_MOTION_DDOT":"0.0000000000000","SITE":"AFETR","REV_AT_EPOCH":"6579","TLE_LINE1":"1 46717U 20073AZ  21359.87659590  .00000065  00000-0  23264-4 0  9998","ARG_OF_PERICENTER":"59.2487","ECCENTRICITY":"0.00017810","RA_OF_ASC_NODE":"291.6567","SEMIMAJOR_AXIS":"6925.352","MEAN_MOTION":"15.06398787","FILE":"3250974","DECAY_DATE":null,"EPOCH":"2021-12-25T21:02:17.885760","GP_ID":"192457411","PERIAPSIS":"545.984","OBJECT_ID":"2020-073AZ","BSTAR":"0.00002326400000","RCS_SIZE":"LARGE","INCLINATION":"53.0544"},{"GP_ID":"192458159","PERIAPSIS":"546.013","FILE":"3250974","DECAY_DATE":null,"EPOCH":"2021-12-25T20:25:49.085184","RCS_SIZE":"LARGE","INCLINATION":"53.0529","OBJECT_ID":"2020-073BA","BSTAR":"-0.00003051100000","REV_AT_EPOCH":"6558","TLE_LINE1":"1 46718U 20073BA  21359.85126256 -.00000736  00000-0 -30511-4 0  9995","RA_OF_ASC_NODE":"306.7868","SEMIMAJOR_AXIS":"6925.396","MEAN_MOTION":"15.06384395","ARG_OF_PERICENTER":"59.3346","ECCENTRICITY":"0.00018020","TLE_LINE2":"2 46718  53.0529 306.7868 0001802  59.3346 300.7821 15.06384395 65580","OBJECT_TYPE":"PAYLOAD","OBJECT_NAME":"STARLINK-1821","COUNTRY_CODE":"US","MEAN_MOTION_DOT":"-0.00000736","CENTER_NAME":"EARTH","NORAD_CAT_ID":"46718","MEAN_ANOMALY":"300.7821","CLASSIFICATION_TYPE":"U","PERIOD":"95.593","MEAN_MOTION_DDOT":"0.0000000000000","SITE":"AFETR","REF_FRAME":"TEME","MEAN_ELEMENT_THEORY":"SGP4","ELEMENT_SET_NO":"999","APOAPSIS":"548.509","EPHEMERIS_TYPE":"0","TIME_SYSTEM":"UTC","LAUNCH_DATE":"2020-10-18"}];
